[{"OBJECT_NAME":"JILIN-1 KUANFU 01C","OBJECT_ID":"2022-048A","EPOCH":"2026-03-09T22:44:12.026688","MEAN_MOTION":15.09601076,"ECCENTRICITY":0.00140886,"INCLINATION":97.5312,"RA_OF_ASC_NODE":147.8831,"ARG_OF_PERICENTER":308.8335,"MEAN_ANOMALY":51.1636,"EPHEMERIS_TYPE":0,"CLASSIFICATION_TYPE":"U","NORAD_CAT_ID":52443,"ELEMENT_SET_NO":999,"REV_AT_EPOCH":21222,"BSTAR":0.00028577595,"MEAN_MOTION_DOT":4.539e-5,"MEAN_MOTION_DDOT":0},{"OBJECT_NAME":"STARLINK-35172","OBJECT_ID":"2025-200P","EPOCH":"2026-03-09T17:30:35.455392","MEAN_MOTION":15.05641967,"ECCENTRICITY":0.00026072,"INCLINATION":97.6023,"RA_OF_ASC_NODE":139.7864,"ARG_OF_PERICENTER":63.6851,"MEAN_ANOMALY":296.4643,"EPHEMERIS_TYPE":0,"CLASSIFICATION_TYPE":"U","NORAD_CAT_ID":65533,"ELEMENT_SET_NO":999,"REV_AT_EPOCH":2913,"BSTAR":-0.00031198218,"MEAN_MOTION_DOT":-4.559e-5,"MEAN_MOTION_DDOT":0}]
